id,name,city,address,latitude,longitude,cuisine,url
1,Kilian Stuba,Kleinwalsertal,,47.34858,10.17114,Creative,https://guide.michelin.com/at/en/vorarlberg/kleinwalsertal/restaurant/kilian-stuba
2,Pfefferschiff,Hallwang,,47.83787,13.07917,Classic cuisine,https://guide.michelin.com/at/en/salzburg-region/hallwang/restaurant/pfefferschiff
3,Esszimmer,Salzburg,,47.80685,13.03409,Creative,https://guide.michelin.com/at/en/salzburg-region/salzburg/restaurant/esszimmer
4,Carpe Diem,Salzburg,,47.80001,13.04006,Market cuisine,https://guide.michelin.com/at/en/salzburg-region/salzburg/restaurant/carpe-diem
5,Edvard,Wien,,48.216503,16.36852,Modern cuisine,https://guide.michelin.com/at/en/vienna/wien/restaurant/edvard
6,Das Loft,Wien,,48.21272,16.37931,Modern cuisine,https://guide.michelin.com/at/en/vienna/wien/restaurant/das-loft
7,Pramerl & the Wolf,Wien,,48.20945,16.37174,Creative,https://guide.michelin.com/at/en/vienna/wien/restaurant/pramerl-the-wolf
8,Walter Bauer,Wien,,48.20923,16.37672,Classic cuisine,https://guide.michelin.com/at/en/vienna/wien/restaurant/walter-bauer
9,SHIKI,Wien,,48.204067,16.37098,Japanese,https://guide.michelin.com/at/en/vienna/wien/restaurant/shiki
10,Tian,Wien,,48.20513,16.37456,Vegetarian,https://guide.michelin.com/at/en/vienna/wien/restaurant/tian
11,aend,Wien,,48.18957,16.34115,Modern cuisine,https://guide.michelin.com/at/en/vienna/wien/restaurant/aend
12,Le Ciel by Toni Mörwald,Wien,,48.20209,16.37156,Classic cuisine,https://guide.michelin.com/at/en/vienna/wien/restaurant/le-ciel-by-toni-morwald
13,Chez TJ,South San Francisco,,37.39468,-122.08044,Contemporary,https://guide.michelin.com/us/en/california/south-san-francisco/restaurant/chez-tj
14,Protégé,South San Francisco,,37.427853,-122.14362,Contemporary,https://guide.michelin.com/us/en/california/south-san-francisco/restaurant/protege
15,Madera,San Francisco,,37.42014,-122.21151,Contemporary,https://guide.michelin.com/us/en/california/san-francisco/restaurant/madera
16,The Village Pub,San Francisco,,37.42897,-122.25178,Contemporary,https://guide.michelin.com/us/en/california/san-francisco/restaurant/the-village-pub
17,Plumed Horse,South San Francisco,,37.25648,-122.03537,Contemporary,https://guide.michelin.com/us/en/california/south-san-francisco/restaurant/plumed-horse
18,Wakuriya,San Francisco,,37.52114,-122.3366,Japanese,https://guide.michelin.com/us/en/california/san-francisco/restaurant/wakuriya
19,Sushi Yoshizumi,San Francisco,,37.565075,-122.3211,Japanese,https://guide.michelin.com/us/en/california/san-francisco/restaurant/sushi-yoshizumi
20,Rasa,San Francisco,,37.577522,-122.345985,Indian,https://guide.michelin.com/us/en/california/san-francisco/restaurant/rasa
21,Maum,South San Francisco,,37.72669,-122.414215,Korean,https://guide.michelin.com/us/en/california/south-san-francisco/restaurant/maum
22,Al's Place,San Francisco,,37.748924,-122.42013,Californian,https://guide.michelin.com/us/en/california/san-francisco/restaurant/al-s-place
23,Aster,San Francisco,,37.755054,-122.423134,Californian,https://guide.michelin.com/us/en/california/san-francisco/restaurant/aster
24,Omakase,San Francisco,,37.77077,-122.40298,Japanese,https://guide.michelin.com/us/en/california/san-francisco/restaurant/omakase
25,Commonwealth,San Francisco,,37.761395,-122.41946,Contemporary,https://guide.michelin.com/us/en/california/san-francisco/restaurant/commonwealth
26,Luce,San Francisco,,37.78194,-122.40498,Contemporary,https://guide.michelin.com/us/en/california/san-francisco/restaurant/luce
27,Birdsong,San Francisco,,37.779495,-122.41048,American,https://guide.michelin.com/us/en/california/san-francisco/restaurant/birdsong
28,In Situ,San Francisco,,37.785633,-122.40113,International,https://guide.michelin.com/us/en/california/san-francisco/restaurant/in-situ
29,Mourad,San Francisco,,37.78695,-122.39987,Moroccan,https://guide.michelin.com/us/en/california/san-francisco/restaurant/mourad
30,Hashiri,San Francisco,,37.783062,-122.40754,Japanese,https://guide.michelin.com/us/en/california/san-francisco/restaurant/hashiri
31,Angler,San Francisco,,37.793167,-122.39213,Contemporary,https://guide.michelin.com/us/en/california/san-francisco/restaurant/angler
32,Rich Table,San Francisco,,37.774914,-122.42271,Contemporary,https://guide.michelin.com/us/en/california/san-francisco/restaurant/rich-table
33,Kin Khao,San Francisco,,37.785267,-122.40951,Thai,https://guide.michelin.com/us/en/california/san-francisco/restaurant/kin-khao
34,Michael Mina,San Francisco,,37.79349,-122.399574,Contemporary,https://guide.michelin.com/us/en/california/san-francisco/restaurant/michael-mina
35,Sons & Daughters,San Francisco,,37.79037,-122.40917,Contemporary,https://guide.michelin.com/us/en/california/san-francisco/restaurant/sons-daughters
36,Mister Jiu's,San Francisco,,37.79371,-122.406654,Chinese,https://guide.michelin.com/us/en/california/san-francisco/restaurant/mister-jius
37,Nico,San Francisco,,37.795803,-122.40333,Contemporary,https://guide.michelin.com/us/en/california/san-francisco/restaurant/nico
38,jū-ni,San Francisco,,37.77672,-122.43886,Japanese,https://guide.michelin.com/us/en/california/san-francisco/restaurant/ju-ni
39,Keiko à Nob Hill,San Francisco,,37.793106,-122.41445,Fusion,https://guide.michelin.com/us/en/california/san-francisco/restaurant/keiko-a-nob-hill
40,The Progress,San Francisco,,37.78371,-122.43282,Californian,https://guide.michelin.com/us/en/california/san-francisco/restaurant/the-progress
41,State Bird Provisions,San Francisco,,37.783737,-122.43283,American,https://guide.michelin.com/us/en/california/san-francisco/restaurant/state-bird-provisions
42,Octavia,San Francisco,,37.787857,-122.42709,Californian,https://guide.michelin.com/us/en/california/san-francisco/restaurant/octavia
43,SPQR,San Francisco,,37.78732,-122.43375,Italian,https://guide.michelin.com/us/en/california/san-francisco/restaurant/spqr
44,Lord Stanley,San Francisco,,37.79592,-122.42208,Californian,https://guide.michelin.com/us/en/california/san-francisco/restaurant/lord-stanley
45,Kinjo,San Francisco,,37.79699,-122.422005,Japanese,https://guide.michelin.com/us/en/california/san-francisco/restaurant/kinjo
46,Sorrel,San Francisco,,37.788334,-122.44614,Californian,https://guide.michelin.com/us/en/california/san-francisco/restaurant/sorrel
47,Gary Danko,San Francisco,,37.80599,-122.42066,Contemporary,https://guide.michelin.com/us/en/california/san-francisco/restaurant/gary-danko
48,Bar Crenn,San Francisco,,37.798435,-122.43581,French,https://guide.michelin.com/us/en/california/san-francisco/restaurant/bar-crenn
49,Spruce,San Francisco,,37.78772,-122.45264,Californian,https://guide.michelin.com/us/en/california/san-francisco/restaurant/spruce
50,Wako,San Francisco,,37.783035,-122.461525,Japanese,https://guide.michelin.com/us/en/california/san-francisco/restaurant/wako
51,Madcap,San Francisco,,37.974712,-122.56168,Contemporary,https://guide.michelin.com/us/en/california/san-francisco/restaurant/madcap
52,Aubergine,Monterey,,36.55406,-121.924355,Contemporary,https://guide.michelin.com/us/en/california/monterey/restaurant/aubergine
53,Kenzo,San Francisco,,38.29924,-122.28928,Japanese,https://guide.michelin.com/us/en/california/san-francisco/restaurant/kenzo
54,La Toque,San Francisco,,38.30351,-122.28349,Contemporary,https://guide.michelin.com/us/en/california/san-francisco/restaurant/la-toque
55,Bouchon,San Francisco,,38.40258,-122.3619,French,https://guide.michelin.com/us/en/california/san-francisco/restaurant/bouchon
56,Auberge du Soleil,San Francisco,,38.49199,-122.40534,Californian,https://guide.michelin.com/us/en/california/san-francisco/restaurant/auberge-du-soleil
57,Farmhouse Inn & Restaurant,San Francisco,,38.49039,-122.8835,Californian,https://guide.michelin.com/us/en/california/san-francisco/restaurant/farmhouse-inn-restaurant
58,The Kitchen,Sacramento,,38.58894,-121.41424,Contemporary,https://guide.michelin.com/us/en/california/us-sacramento/restaurant/the-kitchen559371
59,Madrona Manor,San Francisco,,38.60428,-122.88647,Contemporary,https://guide.michelin.com/us/en/california/san-francisco/restaurant/madrona-manor
60,Harbor House,San Francisco,,39.135876,-123.719444,Californian,https://guide.michelin.com/us/en/california/san-francisco/restaurant/harbor-house
61,Shin Sushi,Los Angeles,,34.15784,-118.49415,Japanese,https://guide.michelin.com/us/en/california/us-los-angeles/restaurant/shin-sushi
62,Rustic Canyon,Los Angeles,,34.024952,-118.49118,Californian,https://guide.michelin.com/us/en/california/us-los-angeles/restaurant/rustic-canyon
63,Dialogue,Los Angeles,,34.01679,-118.49748,Contemporary,https://guide.michelin.com/us/en/california/us-los-angeles/restaurant/dialogue
64,Kato,Los Angeles,,34.041683,-118.460915,Asian,https://guide.michelin.com/us/en/california/us-los-angeles/restaurant/kato
65,CUT,Los Angeles,,34.067036,-118.401024,Steakhouse,https://guide.michelin.com/us/en/california/us-los-angeles/restaurant/cut559418
66,Nozawa Bar,Los Angeles,,34.0683,-118.39849,Japanese,https://guide.michelin.com/us/en/california/us-los-angeles/restaurant/nozawa-bar
67,Shunji,Los Angeles,,34.028496,-118.45195,Japanese,https://guide.michelin.com/us/en/california/us-los-angeles/restaurant/shunji
68,Maude,Los Angeles,,34.064346,-118.39904,Contemporary,https://guide.michelin.com/us/en/california/us-los-angeles/restaurant/maude
69,Mori Sushi,Los Angeles,,34.033398,-118.44229,Japanese,https://guide.michelin.com/us/en/california/us-los-angeles/restaurant/mori-sushi
70,Trois Mec,Los Angeles,,34.084255,-118.33851,Contemporary,https://guide.michelin.com/us/en/california/us-los-angeles/restaurant/trois-mec
71,Osteria Mozza,Los Angeles,,34.08342,-118.338974,Italian,https://guide.michelin.com/us/en/california/us-los-angeles/restaurant/osteria-mozza
72,Kali,Los Angeles,,34.083443,-118.32455,Californian,https://guide.michelin.com/us/en/california/us-los-angeles/restaurant/kali
73,Le Comptoir,Los Angeles,,34.06354,-118.30057,Californian,https://guide.michelin.com/us/en/california/us-los-angeles/restaurant/le-comptoir
74,Q Sushi,Los Angeles,,34.046883,-118.255844,Japanese,https://guide.michelin.com/us/en/california/us-los-angeles/restaurant/q-sushi
75,Shibumi,Los Angeles,,34.044155,-118.256134,Japanese,https://guide.michelin.com/us/en/california/us-los-angeles/restaurant/shibumi559644
76,Hayato,Los Angeles,,34.03311,-118.24265,Japanese,https://guide.michelin.com/us/en/california/us-los-angeles/restaurant/hayato
77,Bistro Na's,Los Angeles,,34.104412,-118.07159,Chinese,https://guide.michelin.com/us/en/california/us-los-angeles/restaurant/bistro-na-s
78,Orsa & Winston,Los Angeles,,33.92145,-118.275406,Fusion,https://guide.michelin.com/us/en/california/us-los-angeles/restaurant/orsa-winston
79,Taco María,Costa Mesa,,33.69475,-117.924965,Mexican,https://guide.michelin.com/us/en/california/us-costa-mesa/restaurant/taco-maria
80,Hana re,Costa Mesa,,33.67759,-117.886566,Japanese,https://guide.michelin.com/us/en/california/us-costa-mesa/restaurant/hana-re
81,Addison,San Diego,,32.939903,-117.20013,Contemporary,https://guide.michelin.com/us/en/california/us-san-diego/restaurant/addison
82,Parachute,Chicago,,41.94483,-87.70638,Fusion,https://guide.michelin.com/us/en/illinois/chicago/restaurant/parachute
83,Goosefoot,Chicago,,41.96856,-87.69596,Contemporary,https://guide.michelin.com/us/en/illinois/chicago/restaurant/goosefoot
84,Elizabeth,Chicago,,41.969555,-87.688736,Contemporary,https://guide.michelin.com/us/en/illinois/chicago/restaurant/elizabeth
85,EL Ideas,Chicago,,41.863,-87.68686,Contemporary,https://guide.michelin.com/us/en/illinois/chicago/restaurant/el-ideas
86,Band of Bohemia,Chicago,,41.967308,-87.67477,Gastropub,https://guide.michelin.com/us/en/illinois/chicago/restaurant/band-of-bohemia
87,Schwa,Chicago,,41.90888,-87.66792,Contemporary,https://guide.michelin.com/us/en/illinois/chicago/restaurant/schwa
88,Temporis,Chicago,,41.898907,-87.66725,Contemporary,https://guide.michelin.com/us/en/illinois/chicago/restaurant/temporis
89,Entente,Chicago,,41.93721,-87.6652,Contemporary,https://guide.michelin.com/us/en/illinois/chicago/restaurant/entente
90,Elske,Chicago,,41.884426,-87.66071,Contemporary,https://guide.michelin.com/us/en/illinois/chicago/restaurant/elske
91,Dusek's (Board & Beer),Chicago,,41.857853,-87.65757,Gastropub,https://guide.michelin.com/us/en/illinois/chicago/restaurant/dusek-s-board-beer
92,Roister,Chicago,,41.886658,-87.65187,Contemporary,https://guide.michelin.com/us/en/illinois/chicago/restaurant/roister
93,Boka,Chicago,,41.91363,-87.64806,Contemporary,https://guide.michelin.com/us/en/illinois/chicago/restaurant/boka
94,Blackbird,Chicago,,41.88423,-87.64356,Contemporary,https://guide.michelin.com/us/en/illinois/chicago/restaurant/blackbird
95,Sepia,Chicago,,41.88394,-87.64247,American,https://guide.michelin.com/us/en/illinois/chicago/restaurant/sepia
96,North Pond,Chicago,,41.9296,-87.63762,Contemporary,https://guide.michelin.com/us/en/illinois/chicago/restaurant/north-pond
97,Everest,Chicago,,41.87597,-87.63212,French,https://guide.michelin.com/us/en/illinois/chicago/restaurant/everest
98,Topolobampo,Chicago,,41.89047,-87.63085,Mexican,https://guide.michelin.com/us/en/illinois/chicago/restaurant/topolobampo
99,Spiaggia,Chicago,,41.90062,-87.62457,Italian,https://guide.michelin.com/us/en/illinois/chicago/restaurant/spiaggia
100,Monte,Rovinj,,45.08279,13.631168,Creative,https://guide.michelin.com/hr/en/istria/rovinj/restaurant/monte
101,Draga di Lovrana,Lovran,,45.275867,14.251401,Modern cuisine,https://guide.michelin.com/hr/en/primorje-gorski-kotar/lovran/restaurant/draga-di-lovrana
102,Noel,Zagreb,,45.811054,15.988205,Modern cuisine,https://guide.michelin.com/hr/en/zagreb-region/zagreb/restaurant/noel
103,Pelegrini,Šibenik,,43.73603,15.888903,Modern cuisine,https://guide.michelin.com/hr/en/sibenik-knin/sibenik/restaurant/pelegrini
104,360º,Dubrovnik,,42.641563,18.111523,Modern cuisine,https://guide.michelin.com/hr/en/dubrovnik-neretva/dubrovnik/restaurant/360%C2%BA
105,Field,Praha,,50.0919,14.42193,Modern cuisine,https://guide.michelin.com/cz/en/prague/praha/restaurant/field
106,La Degustation Bohême Bourgeoise,Praha,,50.09115,14.42511,Modern cuisine,https://guide.michelin.com/cz/en/prague/praha/restaurant/la-degustation-boheme-bourgeoise
107,Gastromé,Aarhus,,56.15788,10.20937,Modern cuisine,https://guide.michelin.com/dk/en/central-denmark/aarhus/restaurant/gastrome
108,Domestic,Aarhus,,56.15893,10.212132,Modern cuisine,https://guide.michelin.com/dk/en/central-denmark/aarhus/restaurant/domestic
109,Substans,Aarhus,,56.15415,10.20372,Modern cuisine,https://guide.michelin.com/dk/en/central-denmark/aarhus/restaurant/substans
110,Frederikshøj,Aarhus,,56.12497,10.208638,Creative,https://guide.michelin.com/dk/en/central-denmark/aarhus/restaurant/frederikshoj
111,Me‚Mu,Vejle,,55.70901,9.53302,Modern cuisine,https://guide.michelin.com/dk/en/vejle/restaurant/me%E2%80%9Amu
112,Ti Trin Ned,Fredericia,,55.56659,9.752689,Modern cuisine,https://guide.michelin.com/dk/en/southern-denmark/fredericia/restaurant/ti-trin-ned
113,Slotskøkkenet,Hørve,,55.771236,11.390805,Creative,https://guide.michelin.com/dk/en/zealand/horve/restaurant/slotskokkenet
114,Søllerød Kro,København,,55.81325,12.49548,Modern cuisine,https://guide.michelin.com/dk/en/capital-region/kobenhavn/restaurant/sollerod-kro
115,Jordnær,København,,55.748226,12.541014,Danish,https://guide.michelin.com/dk/en/capital-region/kobenhavn/restaurant/jordnaer
116,Relæ,København,,55.693233,12.543222,Modern cuisine,https://guide.michelin.com/dk/en/capital-region/kobenhavn/restaurant/relae
117,Kiin Kiin,København,,55.69188,12.55754,Thai,https://guide.michelin.com/dk/en/capital-region/kobenhavn/restaurant/kiin-kiin
118,formel B,København,,55.67031,12.53798,Modern cuisine,https://guide.michelin.com/dk/en/capital-region/kobenhavn/restaurant/formel-b
119,Kokkeriet,København,,55.68768,12.58492,Modern cuisine,https://guide.michelin.com/dk/en/capital-region/kobenhavn/restaurant/kokkeriet
120,Clou,København,,55.68342,12.58497,Modern cuisine,https://guide.michelin.com/dk/en/capital-region/kobenhavn/restaurant/clou
121,Marchal,København,,55.68034,12.58508,Modern cuisine,https://guide.michelin.com/dk/en/capital-region/kobenhavn/restaurant/marchal
122,Kong Hans Kælder,København,,55.6787,12.584003,Classic French,https://guide.michelin.com/dk/en/capital-region/kobenhavn/restaurant/kong-hans-kaelder
123,Stud!o at The Standard,København,,55.67799,12.59191,Creative,https://guide.michelin.com/dk/en/capital-region/kobenhavn/restaurant/stud-o-at-the-standard
124,108,København,,55.67785,12.5980835,Modern cuisine,https://guide.michelin.com/dk/en/capital-region/kobenhavn/restaurant/108
125,Era Ora,København,,55.673004,12.591292,Italian,https://guide.michelin.com/dk/en/capital-region/kobenhavn/restaurant/era-ora
126,Alouette,København,,55.66265,12.57634,Modern cuisine,https://guide.michelin.com/dk/en/capital-region/kobenhavn/restaurant/alouette
127,Frederiksminde,Præstø,,55.12417,12.04623,Creative,https://guide.michelin.com/dk/en/zealand/praesto/restaurant/frederiksminde
128,Kadeau Bornholm,Pedersker,,55.00457,14.969216,Creative,https://guide.michelin.com/dk/en/capital-region/pedersker/restaurant/kadeau-bornholm
129,Ask,Helsingfors / Helsinki,,60.17236,24.95648,Modern cuisine,https://guide.michelin.com/fi/en/uusimaa/helsingfors-helsinki/restaurant/ask
130,Grön,Helsingfors / Helsinki,,60.16446,24.93308,Finnish,https://guide.michelin.com/fi/en/uusimaa/helsingfors-helsinki/restaurant/gron
131,Demo,Helsingfors / Helsinki,,60.164806,24.941635,Modern cuisine,https://guide.michelin.com/fi/en/uusimaa/helsingfors-helsinki/restaurant/demo
132,Olo,Helsingfors / Helsinki,,60.16616,24.947704,Modern cuisine,https://guide.michelin.com/fi/en/uusimaa/helsingfors-helsinki/restaurant/olo
133,Palace,Helsingfors / Helsinki,,60.16556,24.95256,Modern cuisine,https://guide.michelin.com/fi/en/uusimaa/helsingfors-helsinki/restaurant/palace
134,Ora,Helsingfors / Helsinki,,60.157578,24.942947,Modern cuisine,https://guide.michelin.com/fi/en/uusimaa/helsingfors-helsinki/restaurant/ora
135,Botrini's,Athína,,38.02318,23.79377,Mediterranean,https://guide.michelin.com/gr/en/attica/athina/restaurant/botrini-s
136,Varoulko Seaside,Athína,,37.937378,23.658577,Seafood,https://guide.michelin.com/gr/en/attica/athina/restaurant/varoulko-seaside
137,Hytra,Athína,,37.95818,23.71895,Modern cuisine,https://guide.michelin.com/gr/en/attica/athina/restaurant/hytra
138,Loaf On,Hong Kong,,22.379858,114.27188,Cantonese,https://guide.michelin.com/hk/en/hong-kong-region/hong-kong/restaurant/loaf-on
139,Lei Garden (Kwun Tong),Hong Kong,,22.312672,114.22482,Cantonese,https://guide.michelin.com/hk/en/hong-kong-region/hong-kong/restaurant/lei-garden-kwun-tong
140,Tim Ho Wan (Sham Shui Po),Hong Kong,,22.32805,114.16665,Dim Sum,https://guide.michelin.com/hk/en/hong-kong-region/hong-kong/restaurant/tim-ho-wan-sham-shui-po
141,Lei Garden (Mong Kok),Hong Kong,,22.320219,114.17133,Cantonese,https://guide.michelin.com/hk/en/hong-kong-region/hong-kong/restaurant/lei-garden-mong-kok
142,Ming Court,Hong Kong,,22.318314,114.16933,Cantonese,https://guide.michelin.com/hk/en/hong-kong-region/hong-kong/restaurant/ming-court
143,Yat Tung Heen (Jordan),Hong Kong,,22.308014,114.17147,Cantonese,https://guide.michelin.com/hk/en/hong-kong-region/hong-kong/restaurant/yat-tung-heen-jordan
144,Fu Ho (Tsim Sha Tsui),Hong Kong,,22.3022,114.17194,Cantonese,https://guide.michelin.com/hk/en/hong-kong-region/hong-kong/restaurant/fu-ho-tsim-sha-tsui
145,Shang Palace,Hong Kong,,22.297325,114.177155,Cantonese,https://guide.michelin.com/hk/en/hong-kong-region/hong-kong/restaurant/shang-palace
146,IM Teppanyaki & Wine,Hong Kong,,22.280807,114.19211,Teppanyaki,https://guide.michelin.com/hk/en/hong-kong-region/hong-kong/restaurant/im-teppanyaki-wine
147,Ah Yat Harbour View (Tsim Sha Tsui),Hong Kong,,22.296984,114.17197,Cantonese,https://guide.michelin.com/hk/en/hong-kong-region/hong-kong/restaurant/ah-yat-harbour-view-tsim-sha-tsui
148,Rech,Hong Kong,,22.293434,114.174034,Seafood,https://guide.michelin.com/hk/en/hong-kong-region/hong-kong/restaurant/rech
149,Spring Moon,Hong Kong,,22.294943,114.17182,Cantonese,https://guide.michelin.com/hk/en/hong-kong-region/hong-kong/restaurant/spring-moon
150,Imperial Treasure Fine Chinese Cuisine,Hong Kong,,22.296177,114.170006,Cantonese,https://guide.michelin.com/hk/en/hong-kong-region/hong-kong/restaurant/imperial-treasure-fine-chinese-cuisine
151,Sushi Tokami,Hong Kong,,22.296112,114.16916,Sushi,https://guide.michelin.com/hk/en/hong-kong-region/hong-kong/restaurant/sushi-tokami
152,Tosca,Hong Kong,,22.30357,114.16007,Italian,https://guide.michelin.com/hk/en/hong-kong-region/hong-kong/restaurant/tosca352519
153,Épure,,,22.29583,114.169304,French,https://guide.michelin.com/hk/en/hong-kong-region/hong-kong/restaurant/epure
154,Yee Tung Heen,Hong Kong,,22.282295,114.184135,Cantonese,https://guide.michelin.com/hk/en/hong-kong-region/hong-kong/restaurant/yee-tung-heen
155,Yè Shanghai (Tsim Sha Tsui),Hong Kong,,22.295143,114.168236,Shanghainese,https://guide.michelin.com/hk/en/hong-kong-region/hong-kong/restaurant/ye-shanghai-tsim-sha-tsui
156,Ho Hung Kee,Hong Kong,,22.280058,114.18364,Noodles and congee,https://guide.michelin.com/hk/en/hong-kong-region/hong-kong/restaurant/ho-hung-kee
157,Jardin de Jade (Wan Chai),Hong Kong,,22.28025,114.17716,Shanghainese,https://guide.michelin.com/hk/en/hong-kong-region/hong-kong/restaurant/jardin-de-jade-wan-chai
158,Zhejiang Heen,Hong Kong,,22.2787,114.17763,Shanghainese,https://guide.michelin.com/hk/en/hong-kong-region/hong-kong/restaurant/zhejiang-heen
159,Takumi by Daisuke Mori,Hong Kong,,22.276512,114.17718,Innovative,https://guide.michelin.com/hk/en/hong-kong-region/hong-kong/restaurant/takumi-by-daisuke-mori
160,Kam's Roast Goose,Hong Kong,,22.277693,114.175385,Cantonese Roast Meats,https://guide.michelin.com/hk/en/hong-kong-region/hong-kong/restaurant/kam-s-roast-goose
161,Pang's Kitchen,Hong Kong,,22.26921,114.18452,Cantonese,https://guide.michelin.com/hk/en/hong-kong-region/hong-kong/restaurant/pang-s-kitchen
162,Xin Rong Ji,Hong Kong,,22.278013,114.17273,Taizhou,https://guide.michelin.com/hk/en/hong-kong-region/hong-kong/restaurant/xin-rong-ji
163,Qi (Wan Chai),Hong Kong,,22.276443,114.17126,Sichuan,https://guide.michelin.com/hk/en/hong-kong-region/hong-kong/restaurant/qi-wan-chai
164,Man Wah,Hong Kong,,22.282213,114.15951,Cantonese,https://guide.michelin.com/hk/en/hong-kong-region/hong-kong/restaurant/man-wah
165,Summer Palace,Hong Kong,,22.277136,114.1643,Cantonese,https://guide.michelin.com/hk/en/hong-kong-region/hong-kong/restaurant/summer-palace
166,Octavium,Hong Kong,,22.282587,114.1572,Italian,https://guide.michelin.com/hk/en/hong-kong-region/hong-kong/restaurant/octavium
167,Arbor,,,22.283146,114.15542,Innovative,https://guide.michelin.com/hk/en/hong-kong-region/hong-kong/restaurant/arbor
168,VEA,Hong Kong,,22.284931,114.15313,Innovative,https://guide.michelin.com/hk/en/hong-kong-region/hong-kong/restaurant/vea
169,Mandarin Grill + Bar,Hong Kong,,22.281048,114.1574,European contemporary,https://guide.michelin.com/hk/en/hong-kong-region/hong-kong/restaurant/mandarin-grill-bar
170,Yat Lok,Hong Kong,,22.28226,114.155655,Cantonese Roast Meats,https://guide.michelin.com/hk/en/hong-kong-region/hong-kong/restaurant/yat-lok
171,Guo Fu Lou,Hong Kong,,22.278313,114.16034,Cantonese,https://guide.michelin.com/hk/en/hong-kong-region/hong-kong/restaurant/guo-fu-lou567828
172,Celebrity Cuisine,Hong Kong,,22.284334,114.15312,Cantonese,https://guide.michelin.com/hk/en/hong-kong-region/hong-kong/restaurant/celebrity-cuisine
173,Sushi Wadatsumi,Hong Kong,,22.281038,114.15646,Sushi,https://guide.michelin.com/hk/en/hong-kong-region/hong-kong/restaurant/sushi-wadatsumi
174,Arcane,Hong Kong,,22.280624,114.15682,European contemporary,https://guide.michelin.com/hk/en/hong-kong-region/hong-kong/restaurant/arcane
175,Duddell's,Hong Kong,,22.28008,114.157364,Cantonese,https://guide.michelin.com/hk/en/hong-kong-region/hong-kong/restaurant/duddell-s
176,Beefbar,Hong Kong,,22.27982,114.15752,Steakhouse,https://guide.michelin.com/hk/en/hong-kong-region/hong-kong/restaurant/beefbar
177,New Punjab Club,Hong Kong,,22.28005,114.15525,Indian,https://guide.michelin.com/hk/en/hong-kong-region/hong-kong/restaurant/new-punjab-club
178,Kaiseki Den by Saotome,Hong Kong,,22.285713,114.147865,Japanese,https://guide.michelin.com/hk/en/hong-kong-region/hong-kong/restaurant/kaiseki-den-by-saotome
179,Belon,Hong Kong,,22.281662,114.152405,French,https://guide.michelin.com/hk/en/hong-kong-region/hong-kong/restaurant/belon
180,Tate,Hong Kong,,22.280996,114.15276,Innovative,https://guide.michelin.com/hk/en/hong-kong-region/hong-kong/restaurant/tate
181,The Ocean,Hong Kong,,22.235146,114.198524,French,https://guide.michelin.com/hk/en/hong-kong-region/hong-kong/restaurant/the-ocean
182,Costes Downtown,Budapest,,47.50113,19.048595,Modern cuisine,https://guide.michelin.com/hu/en/central-hungary/budapest/restaurant/costes-downtown
183,Borkonyha Winekitchen,Budapest,,47.49953,19.052391,Modern cuisine,https://guide.michelin.com/hu/en/central-hungary/budapest/restaurant/borkonyha-winekitchen
184,Stand,Budapest,,47.500244,19.059624,Modern cuisine,https://guide.michelin.com/hu/en/central-hungary/budapest/restaurant/stand
185,Babel,Budapest,,47.492603,19.05256,Modern cuisine,https://guide.michelin.com/hu/en/central-hungary/budapest/restaurant/babel
186,Costes,Budapest,,47.48873,19.061779,Modern cuisine,https://guide.michelin.com/hu/en/central-hungary/budapest/restaurant/costes
187,The Kitchen,Macau,,22.191442,113.543,Steakhouse,https://guide.michelin.com/mo/en/macau-region/macau/restaurant/the-kitchen417810
188,Tim's Kitchen,Macau,,22.189898,113.5439,Cantonese,https://guide.michelin.com/mo/en/macau-region/macau/restaurant/tim-s-kitchen
189,Wing Lei,Macau,,22.188028,113.54578,Cantonese,https://guide.michelin.com/mo/en/macau-region/macau/restaurant/wing-lei
190,King,Macau,,22.190178,113.54028,Cantonese,https://guide.michelin.com/mo/en/macau-region/macau/restaurant/king380226
191,Ying,Macau,,22.161234,113.555405,Cantonese,https://guide.michelin.com/mo/en/macau-region/macau/restaurant/ying
192,Shinji by Kanesaka,Macau,,22.149635,113.56397,Sushi,https://guide.michelin.com/mo/en/macau-region/macau/restaurant/shinji-by-kanesaka
193,The Golden Peacock,Macau,,22.148178,113.56335,Indian,https://guide.michelin.com/mo/en/macau-region/macau/restaurant/the-golden-peacock
194,Zi Yat Heen,Macau,,22.145418,113.56152,Cantonese,https://guide.michelin.com/mo/en/macau-region/macau/restaurant/zi-yat-heen
195,8 1/2 Otto e Mezzo - Bombana,Macau,,22.14918,113.55393,Italian,https://guide.michelin.com/mo/en/macau-region/macau/restaurant/8-1-2-otto-e-mezzo-bombana
196,Pearl Dragon,Macau,,22.140524,113.56256,Cantonese,https://guide.michelin.com/mo/en/macau-region/macau/restaurant/pearl-dragon
197,Lai Heen,Macau,,22.148754,113.551926,Cantonese,https://guide.michelin.com/mo/en/macau-region/macau/restaurant/lai-heen
198,FAGN,Trondheim,,63.43392,10.39628,Modern cuisine,https://guide.michelin.com/no/en/trondelag/trondheim/restaurant/fagn
199,Credo,Trondheim,,63.43391,10.39631,Creative,https://guide.michelin.com/no/en/trondelag/trondheim/restaurant/credo
200,RE-NAA,Stavanger,,58.972088,5.732877,Creative,https://guide.michelin.com/no/en/rogaland/stavanger/restaurant/re-naa
201,Sabi Omakase,Stavanger,,58.969936,5.7433133,Sushi,https://guide.michelin.com/no/en/rogaland/stavanger/restaurant/sabi-omakase
202,Galt,Oslo,,59.91661,10.71369,Modern cuisine,https://guide.michelin.com/no/en/oslo-region/oslo/restaurant/galt
203,Kontrast,Oslo,,59.92355,10.75106,Scandinavian,https://guide.michelin.com/no/en/oslo-region/oslo/restaurant/kontrast
204,Statholdergaarden,Oslo,,59.90937,10.74305,Classic cuisine,https://guide.michelin.com/no/en/oslo-region/oslo/restaurant/statholdergaarden
205,Del Posto,New York,,40.74327,-74.0077,Italian,https://guide.michelin.com/us/en/new-york-state/new-york/restaurant/del-posto
206,Le Grill de Joël Robuchon,New York,,40.742897,-74.0077,French,https://guide.michelin.com/us/en/new-york-state/new-york/restaurant/le-grill-de-joel-robuchon
207,L'Appart,New York,,40.711903,-74.01544,French,https://guide.michelin.com/us/en/new-york-state/new-york/restaurant/l-appart
208,Okuda,New York,,40.743793,-74.00633,Japanese,https://guide.michelin.com/us/en/new-york-state/new-york/restaurant/okuda
209,Wallsé,New York,,40.73538,-74.00814,Austrian,https://guide.michelin.com/us/en/new-york-state/new-york/restaurant/wallse
210,Jeju Noodle Bar,New York,,40.732952,-74.00744,Korean,https://guide.michelin.com/us/en/new-york-state/new-york/restaurant/jeju-noodle-bar
211,Sushi Nakazawa,New York,,40.731716,-74.00451,Japanese,https://guide.michelin.com/us/en/new-york-state/new-york/restaurant/sushi-nakazawa
212,Kosaka,New York,,40.738316,-74.00137,Japanese,https://guide.michelin.com/us/en/new-york-state/new-york/restaurant/kosaka
213,Bâtard,New York,,40.719616,-74.00589,Contemporary,https://guide.michelin.com/us/en/new-york-state/new-york/restaurant/batard
214,Hirohisa,New York,,40.72452,-74.003006,Japanese,https://guide.michelin.com/us/en/new-york-state/new-york/restaurant/hirohisa
215,Blue Hill,New York,,40.7321,-73.9996,American,https://guide.michelin.com/us/en/new-york-state/new-york/restaurant/blue-hill
216,ZZ's Clam Bar,New York,,40.727646,-74.00046,Seafood,https://guide.michelin.com/us/en/new-york-state/new-york/restaurant/zz-s-clam-bar
217,Babbo,New York,,40.73233,-73.99916,Italian,https://guide.michelin.com/us/en/new-york-state/new-york/restaurant/babbo
218,Carbone,New York,,40.727966,-74.00017,Italian,https://guide.michelin.com/us/en/new-york-state/new-york/restaurant/carbone
219,Le Coucou,New York,,40.719162,-74.00001,French,https://guide.michelin.com/us/en/new-york-state/new-york/restaurant/le-coucou
220,Aldea,New York,,40.73885,-73.99366,Mediterranean,https://guide.michelin.com/us/en/new-york-state/new-york/restaurant/aldea
221,Cote,New York,,40.73778,-73.99375,Korean,https://guide.michelin.com/us/en/new-york-state/new-york/restaurant/cote
222,Bouley at Home,New York,,40.74114,-73.99242,Contemporary,https://guide.michelin.com/us/en/new-york-state/new-york/restaurant/bouley-at-home
223,Gotham Bar and Grill,New York,,40.73417,-73.99379,American,https://guide.michelin.com/us/en/new-york-state/new-york/restaurant/gotham-bar-and-grill
224,Nix,New York,,40.733166,-73.993515,Vegetarian,https://guide.michelin.com/us/en/new-york-state/new-york/restaurant/nix
225,Junoon,New York,,40.74325,-73.99077,Indian,https://guide.michelin.com/us/en/new-york-state/new-york/restaurant/junoon
226,NoMad,New York,,40.74497,-73.98883,Contemporary,https://guide.michelin.com/us/en/new-york-state/new-york/restaurant/nomad
227,The Musket Room,New York,,40.723915,-73.99375,Contemporary,https://guide.michelin.com/us/en/new-york-state/new-york/restaurant/the-musket-room
228,Uncle Boons,New York,,40.721203,-73.99441,Thai,https://guide.michelin.com/us/en/new-york-state/new-york/restaurant/uncle-boons
229,Noda,New York,,40.74497,-73.988075,Japanese,https://guide.michelin.com/us/en/new-york-state/new-york/restaurant/noda
230,Gramercy Tavern,New York,,40.73849,-73.98868,Contemporary,https://guide.michelin.com/us/en/new-york-state/new-york/restaurant/gramercy-tavern
231,The Clocktower,New York,,40.7414,-73.987595,Contemporary,https://guide.michelin.com/us/en/new-york-state/new-york/restaurant/the-clocktower
232,Ai Fiori,New York,,40.75013,-73.98357,Italian,https://guide.michelin.com/us/en/new-york-state/new-york/restaurant/ai-fiori
233,Casa Mono,New York,,40.73595,-73.98706,Spanish,https://guide.michelin.com/us/en/new-york-state/new-york/restaurant/casa-mono
234,Jewel Bako,New York,,40.72713,-73.98928,Japanese,https://guide.michelin.com/us/en/new-york-state/new-york/restaurant/jewel-bako
235,The River Café,New York,,40.703613,-73.994774,Contemporary,https://guide.michelin.com/us/en/new-york-state/new-york/restaurant/the-river-cafe
236,Bar Uchū,New York,,40.72191,-73.99003,Japanese,https://guide.michelin.com/us/en/new-york-state/new-york/restaurant/bar-uchu
237,Café China,New York,,40.749973,-73.98228,Chinese,https://guide.michelin.com/us/en/new-york-state/new-york/restaurant/cafe-china
238,Kanoyama,New York,,40.73071,-73.98655,Japanese,https://guide.michelin.com/us/en/new-york-state/new-york/restaurant/kanoyama
239,Contra,New York,,40.719917,-73.98922,Contemporary,https://guide.michelin.com/us/en/new-york-state/new-york/restaurant/contra
240,Atomix,New York,,40.744408,-73.98292,Korean,https://guide.michelin.com/us/en/new-york-state/new-york/restaurant/atomix
241,Kyo Ya,New York,,40.7266,-73.98526,Japanese,https://guide.michelin.com/us/en/new-york-state/new-york/restaurant/kyo-ya
242,Kajitsu,New York,,40.72776,-73.98428,Japanese,https://guide.michelin.com/us/en/new-york-state/new-york/restaurant/kajitsu
243,Agern,New York,,40.75234,-73.9775,Scandinavian,https://guide.michelin.com/us/en/new-york-state/new-york/restaurant/agern
244,Caviar Russe,New York,,40.760685,-73.97355,Contemporary,https://guide.michelin.com/us/en/new-york-state/new-york/restaurant/caviar-russe
245,Tuome,New York,,40.724194,-73.9828,Fusion,https://guide.michelin.com/us/en/new-york-state/new-york/restaurant/tuome
246,Tempura Matsui,New York,,40.74839,-73.97474,Japanese,https://guide.michelin.com/us/en/new-york-state/new-york/restaurant/tempura-matsui
247,Sushi Yasuda,New York,,40.75108,-73.97364,Japanese,https://guide.michelin.com/us/en/new-york-state/new-york/restaurant/sushi-yasuda
248,Sushi Amane,New York,,40.75133,-73.971725,Japanese,https://guide.michelin.com/us/en/new-york-state/new-york/restaurant/sushi-amane
249,Café Boulud,New York,,40.77439,-73.96414,French,https://guide.michelin.com/us/en/new-york-state/new-york/restaurant/cafe-boulud
250,Claro,New York,,40.677395,-73.98615,Mexican,https://guide.michelin.com/us/en/new-york-state/new-york/restaurant/claro
251,Satsuki,New York,,40.801243,-73.95187,Japanese,https://guide.michelin.com/us/en/new-york-state/new-york/restaurant/satsuki
252,Sushi Noz,New York,,40.77384,-73.958275,Japanese,https://guide.michelin.com/us/en/new-york-state/new-york/restaurant/sushi-noz
253,Sushi Inoue,New York,,40.810448,-73.943726,Japanese,https://guide.michelin.com/us/en/new-york-state/new-york/restaurant/sushi-inoue
254,Meadowsweet,New York,,40.710354,-73.96317,Mediterranean,https://guide.michelin.com/us/en/new-york-state/new-york/restaurant/meadowsweet
255,Casa Enríque,New York,,40.743492,-73.95425,Mexican,https://guide.michelin.com/us/en/new-york-state/new-york/restaurant/casa-enrique
256,Peter Luger,New York,,40.70986,-73.96263,Steakhouse,https://guide.michelin.com/us/en/new-york-state/new-york/restaurant/peter-luger
257,Oxomoco,New York,,40.730057,-73.95538,Mexican,https://guide.michelin.com/us/en/new-york-state/new-york/restaurant/oxomoco
258,The Finch,New York,,40.68704,-73.96297,American,https://guide.michelin.com/us/en/new-york-state/new-york/restaurant/the-finch
259,Faro,New York,,40.707584,-73.923035,American,https://guide.michelin.com/us/en/new-york-state/new-york/restaurant/faro
260,Senses,Warszawa,,52.244583,21.005886,Modern cuisine,https://guide.michelin.com/pl/en/masovia/warszawa/restaurant/senses
261,atelier Amaro,Warszawa,,52.21708,21.03768,Modern cuisine,https://guide.michelin.com/pl/en/masovia/warszawa/restaurant/atelier-amaro
262,Aniar,Gaillimh/Galway,,53.27112,-9.057078,Creative,https://guide.michelin.com/ie/en/galway/gaillimh-galway/restaurant/aniar
263,Loam,Gaillimh/Galway,,53.27384,-9.044447,Creative,https://guide.michelin.com/ie/en/galway/gaillimh-galway/restaurant/loam
264,Wild Honey Inn,Lios Dúin Bhearna/Lisdoonvarna,,53.03151,-9.2911,Classic cuisine,https://guide.michelin.com/ie/en/clare/lios-duin-bhearna-lisdoonvarna/restaurant/wild-honey-inn
265,Chestnut,Ballydehob,,51.562588,-9.460854,Modern cuisine,https://guide.michelin.com/ie/en/cork/ballydehob/restaurant/chestnut
266,Mews,Baltimore,,51.48285,-9.37234,Modern cuisine,https://guide.michelin.com/ie/en/cork/ie-baltimore/restaurant/mews
267,Ichigo Ichie,Corcaigh/Cork,,51.898167,-8.479933,Japanese,https://guide.michelin.com/ie/en/cork/corcaigh-cork/restaurant/ichigo-ichie
268,Chapter One,City Centre,,53.354374,-6.263786,Modern cuisine,https://guide.michelin.com/ie/en/dublin/city-centre/restaurant/chapter-one
269,Greenhouse,City Centre,,53.340042,-6.258506,Modern cuisine,https://guide.michelin.com/ie/en/dublin/city-centre/restaurant/greenhouse
270,L'Ecrivain,City Centre,,53.33627,-6.24834,Modern cuisine,https://guide.michelin.com/ie/en/dublin/city-centre/restaurant/l-ecrivain
271,Campagne,Cill Chainnigh/Kilkenny,,52.6559,-7.2464285,Modern British,https://guide.michelin.com/ie/en/kilkenny/cill-chainnigh-kilkenny/restaurant/campagne
272,Heron & Grey,Blackrock,,53.30143,-6.177574,Modern cuisine,https://guide.michelin.com/ie/en/dun-laoghaire-rathdown/blackrock/restaurant/heron-grey
273,Lady Helen,Baile Mhic Andáin/Thomastown,,52.526096,-7.188277,Modern cuisine,https://guide.michelin.com/ie/en/kilkenny/baile-mhic-andain-thomastown/restaurant/lady-helen
274,House,Aird Mhór/Ardmore,,51.94777,-7.7135396,Modern cuisine,https://guide.michelin.com/ie/en/waterford/aird-mhor-ardmore/restaurant/house
275,Olympe,Rio de Janeiro - 22470,,-22.96109,-43.20658,French,https://guide.michelin.com/br/en/rio-de-janeiro-region/rio-de-janeiro/restaurant/olympe
276,Lasai,Rio de Janeiro - 22271,,-22.95401,-43.19557,modern,https://guide.michelin.com/br/en/rio-de-janeiro-region/rio-de-janeiro/restaurant/lasai
277,Oteque,Rio de Janeiro - 22271,,-22.95747,-43.194424,modern,https://guide.michelin.com/br/en/rio-de-janeiro-region/rio-de-janeiro/restaurant/oteque
278,Mee,Rio de Janeiro - 22021,,-22.96764,-43.17925,Asian influences,https://guide.michelin.com/br/en/rio-de-janeiro-region/rio-de-janeiro/restaurant/mee
279,Cipriani,Rio de Janeiro - 22021,,-22.96755,-43.17901,Italian,https://guide.michelin.com/br/en/rio-de-janeiro-region/rio-de-janeiro/restaurant/cipriani
280,Jun Sakamoto,São Paulo - 05413,,-23.56318,-46.67737,Japanese,https://guide.michelin.com/br/en/sao-paulo-region/sao-paulo/restaurant/jun-sakamoto
281,Maní,São Paulo - 05415,,-23.56621,-46.67974,creative,https://guide.michelin.com/br/en/sao-paulo-region/sao-paulo/restaurant/mani
282,Evvai,São Paulo - 05415,,-23.567078,-46.679146,modern,https://guide.michelin.com/br/en/sao-paulo-region/sao-paulo/restaurant/evvai
283,Picchi,São Paulo - 01426,,-23.565063,-46.666767,Italian,https://guide.michelin.com/br/en/sao-paulo-region/sao-paulo/restaurant/picchi
284,Kosushi,São Paulo - 04538,,-23.58522,-46.6809,Japanese,https://guide.michelin.com/br/en/sao-paulo-region/sao-paulo/restaurant/kosushi
285,Ryo Gastronomia,São Paulo - 04531,,-23.58132,-46.6767,Japanese,https://guide.michelin.com/br/en/sao-paulo-region/sao-paulo/restaurant/ryo-gastronomia
286,Tangará Jean-Georges,São Paulo - 05706,,-23.634005,-46.72428,modern,https://guide.michelin.com/br/en/sao-paulo-region/sao-paulo/restaurant/tangara-jean-georges
287,Kinoshita,São Paulo - 04509,,-23.59159,-46.67146,Japanese,https://guide.michelin.com/br/en/sao-paulo-region/sao-paulo/restaurant/kinoshita
288,Kan Suke,São Paulo - 01401,,-23.5684,-46.64936,Japanese,https://guide.michelin.com/br/en/sao-paulo-region/sao-paulo/restaurant/kan-suke
289,Huto,São Paulo - 04080,,-23.60882,-46.6598,Japanese,https://guide.michelin.com/br/en/sao-paulo-region/sao-paulo/restaurant/huto
290,Stay,Seoul,,37.513004,127.10257,French contemporary,https://guide.michelin.com/kr/en/seoul-capital-area/kr-seoul/restaurant/stay
291,Lee Jong Kuk 104,Seoul,,37.592903,126.997284,Korean,https://guide.michelin.com/kr/en/seoul-capital-area/kr-seoul/restaurant/lee-jong-kuk-104
292,Hansikgonggan,Seoul,,37.577705,126.98852,Korean,https://guide.michelin.com/kr/en/seoul-capital-area/kr-seoul/restaurant/hansikgonggan
293,Dining in Space,Seoul,,37.57761,126.98845,French contemporary,https://guide.michelin.com/kr/en/seoul-capital-area/kr-seoul/restaurant/dining-in-space
294,Exquisine,Seoul,,37.521046,127.049736,Innovative,https://guide.michelin.com/kr/en/seoul-capital-area/kr-seoul/restaurant/exquisine
295,Dosa,Seoul,,37.52445,127.04441,Innovative,https://guide.michelin.com/kr/en/seoul-capital-area/kr-seoul/restaurant/dosa511871
296,Joo Ok,Seoul,,37.52252,127.04396,Korean contemporary,https://guide.michelin.com/kr/en/seoul-capital-area/kr-seoul/restaurant/joo-ok
297,Balwoo Gongyang,Seoul,,37.57389,126.98318,Temple cuisine,https://guide.michelin.com/kr/en/seoul-capital-area/kr-seoul/restaurant/balwoo-gongyang
298,Muoki,Seoul,,37.518963,127.04217,Innovative,https://guide.michelin.com/kr/en/seoul-capital-area/kr-seoul/restaurant/muoki
299,L'Amitié,Seoul,,37.522675,127.032646,French,https://guide.michelin.com/kr/en/seoul-capital-area/kr-seoul/restaurant/l-amitie
300,Yu Yuan,Seoul,,37.57045,126.97534,Chinese,https://guide.michelin.com/kr/en/seoul-capital-area/kr-seoul/restaurant/yu-yuan
301,Bicena,Seoul,,37.5384,127.00135,Korean,https://guide.michelin.com/kr/en/seoul-capital-area/kr-seoul/restaurant/bicena
302,Mosu,Seoul,,37.536415,126.99934,Innovative,https://guide.michelin.com/kr/en/seoul-capital-area/kr-seoul/restaurant/mosu
303,Poom,Seoul,,37.54903,126.98341,Korean,https://guide.michelin.com/kr/en/seoul-capital-area/kr-seoul/restaurant/poom
304,Soigné,Seoul,,37.49816,127.002,Innovative,https://guide.michelin.com/kr/en/seoul-capital-area/kr-seoul/restaurant/soigne
305,Table for Four,Seoul,,37.49769,126.99442,European contemporary,https://guide.michelin.com/kr/en/seoul-capital-area/kr-seoul/restaurant/table-for-four
306,Zero Complex,Seoul,,37.49417,126.9948,Innovative,https://guide.michelin.com/kr/en/seoul-capital-area/kr-seoul/restaurant/zero-complex
307,Jin Jin,Seoul,,37.55777,126.91324,Chinese,https://guide.michelin.com/kr/en/seoul-capital-area/kr-seoul/restaurant/jin-jin
308,Gotgan,Seoul,,37.52212,126.92022,Korean,https://guide.michelin.com/kr/en/seoul-capital-area/kr-seoul/restaurant/gotgan
309,Hill Street Tai Hwa Pork Noodle,Singapore,,1.3052,103.8624,Street Food,https://guide.michelin.com/sg/en/singapore-region/singapore/restaurant/hill-street-tai-hwa-pork-noodle
310,Putien (Kitchener Road),Singapore,,1.30969,103.8573,Fujian,https://guide.michelin.com/sg/en/singapore-region/singapore/restaurant/putien-kitchener-road
311,Chef Kang's,Singapore,,1.304735,103.84955,Cantonese,https://guide.michelin.com/sg/en/singapore-region/singapore/restaurant/chef-kang-s
312,Garibaldi,Singapore,,1.296564,103.855,Italian,https://guide.michelin.com/sg/en/singapore-region/singapore/restaurant/garibaldi
313,Summer Pavilion,Singapore,,1.291284,103.8603,Cantonese,https://guide.michelin.com/sg/en/singapore-region/singapore/restaurant/summer-pavilion
314,Shinji (Bras Basah Road),Singapore,,1.2959028,103.8539,Sushi,https://guide.michelin.com/sg/en/singapore-region/singapore/restaurant/shinji-bras-basah-road
315,The Song of India,Singapore,,1.310767,103.8353,Indian,https://guide.michelin.com/sg/en/singapore-region/singapore/restaurant/the-song-of-india
316,Lei Garden,Singapore,,1.295228,103.8521,Cantonese,https://guide.michelin.com/sg/en/singapore-region/singapore/restaurant/lei-garden501509
317,Whitegrass,Singapore,,1.295452,103.8516,Australian,https://guide.michelin.com/sg/en/singapore-region/singapore/restaurant/whitegrass
318,Jaan,Singapore,,1.293184,103.8529,French contemporary,https://guide.michelin.com/sg/en/singapore-region/singapore/restaurant/jaan
319,Labyrinth,Singapore,,1.2899688,103.8562,Innovative,https://guide.michelin.com/sg/en/singapore-region/singapore/restaurant/labyrinth
320,Cut,Singapore,,1.2853268,103.8607,Steakhouse,https://guide.michelin.com/sg/en/singapore-region/singapore/restaurant/cut
321,Alma,Singapore,,1.309123,103.834,European contemporary,https://guide.michelin.com/sg/en/singapore-region/singapore/restaurant/alma
322,Béni,Singapore,,1.302379,103.8366,French contemporary,https://guide.michelin.com/sg/en/singapore-region/singapore/restaurant/beni
323,Crystal Jade Golden Palace,Singapore,,1.303244,103.8353,Chinese,https://guide.michelin.com/sg/en/singapore-region/singapore/restaurant/crystal-jade-golden-palace
324,Imperial Treasure Fine Teochew Cuisine (Orchard),Singapore,,1.3032448,103.8349,Chinese,https://guide.michelin.com/sg/en/singapore-region/singapore/restaurant/imperial-treasure-fine-teochew-cuisine-orchard
325,Saint Pierre,Singapore,,1.285781,103.8538,French contemporary,https://guide.michelin.com/sg/en/singapore-region/singapore/restaurant/saint-pierre
326,Sushi Ichi,Singapore,,1.305105,103.8324,Sushi,https://guide.michelin.com/sg/en/singapore-region/singapore/restaurant/sushi-ichi
327,Sushi Kimura,Singapore,,1.3063719,103.829475,Sushi,https://guide.michelin.com/sg/en/singapore-region/singapore/restaurant/sushi-kimura
328,Iggy's,Singapore,,1.305986,103.8294,European contemporary,https://guide.michelin.com/sg/en/singapore-region/singapore/restaurant/iggy-s
329,Braci,Singapore,,1.287212,103.84949,Italian contemporary,https://guide.michelin.com/sg/en/singapore-region/singapore/restaurant/braci
330,Jiang-Nan Chun,Singapore,,1.304937,103.8288,Cantonese,https://guide.michelin.com/sg/en/singapore-region/singapore/restaurant/jiang-nan-chun
331,Bacchanalia,Singapore,,1.2874758,103.8474,Innovative,https://guide.michelin.com/sg/en/singapore-region/singapore/restaurant/bacchanalia
332,Shinji (Tanglin Road),Singapore,,1.305821,103.8257,Sushi,https://guide.michelin.com/sg/en/singapore-region/singapore/restaurant/shinji-tanglin-road
333,Corner House,Singapore,,1.315121,103.8154,Innovative,https://guide.michelin.com/sg/en/singapore-region/singapore/restaurant/corner-house
334,Summer Palace,Singapore,,1.3043848,103.825,Cantonese,https://guide.michelin.com/sg/en/singapore-region/singapore/restaurant/summer-palace501658
335,Cheek by Jowl,Singapore,,1.281301,103.84849,Australian,https://guide.michelin.com/sg/en/singapore-region/singapore/restaurant/cheek-by-jowl
336,Nouri,Singapore,,1.28086,103.84713,Innovative,https://guide.michelin.com/sg/en/singapore-region/singapore/restaurant/nouri
337,Liao Fan Hong Kong Soya Sauce Chicken Rice & Noodle,Singapore,,1.28248,103.8439,Street Food,https://guide.michelin.com/sg/en/singapore-region/singapore/restaurant/liao-fan-hong-kong-soya-sauce-chicken-rice-noodle
338,Burnt Ends,Singapore,,1.280501,103.8418,Barbecue,https://guide.michelin.com/sg/en/singapore-region/singapore/restaurant/burnt-ends
339,Rhubarb,Singapore,,1.279368,103.843,French contemporary,https://guide.michelin.com/sg/en/singapore-region/singapore/restaurant/rhubarb
340,Meta,Singapore,,1.279372,103.8415,Innovative,https://guide.michelin.com/sg/en/singapore-region/singapore/restaurant/meta
341,Ma Cuisine,Singapore,,1.27826,103.842,French,https://guide.michelin.com/sg/en/singapore-region/singapore/restaurant/ma-cuisine
342,Candlenut,Singapore,,1.2797709,103.8402,Peranakan,https://guide.michelin.com/sg/en/singapore-region/singapore/restaurant/candlenut
343,Bhoga,Göteborg,,57.70618,11.9624,Creative,https://guide.michelin.com/se/en/vastra-gotaland/goteborg/restaurant/bhoga
344,Koka,Göteborg,,57.698406,11.965365,Modern cuisine,https://guide.michelin.com/se/en/vastra-gotaland/goteborg/restaurant/koka
345,28+,Göteborg,,57.69809,11.97377,Modern cuisine,https://guide.michelin.com/se/en/vastra-gotaland/goteborg/restaurant/28
346,SK Mat & Människor,Göteborg,,57.69688,11.98338,Modern cuisine,https://guide.michelin.com/se/en/vastra-gotaland/goteborg/restaurant/sk-mat-manniskor
347,Thörnströms Kök,Göteborg,,57.69437,11.977609,Classic cuisine,https://guide.michelin.com/se/en/vastra-gotaland/goteborg/restaurant/thornstroms-kok
348,Upper House,Göteborg,,57.69745,11.99021,Creative,https://guide.michelin.com/se/en/vastra-gotaland/goteborg/restaurant/upper-house
349,Agrikultur,Stockholm,,59.34777,18.05863,Modern cuisine,https://guide.michelin.com/se/en/stockholm-region/stockholm/restaurant/agrikultur
350,Sushi Sho,Stockholm,,59.341286,18.049892,Japanese,https://guide.michelin.com/se/en/stockholm-region/stockholm/restaurant/sushi-sho
351,Volt,Stockholm,,59.33867,18.079683,Creative,https://guide.michelin.com/se/en/stockholm-region/stockholm/restaurant/volt
352,Ekstedt,Stockholm,,59.33674,18.07521,Meats and grills,https://guide.michelin.com/se/en/stockholm-region/stockholm/restaurant/ekstedt
353,Operakällaren,Stockholm,,59.329876,18.071363,Classic cuisine,https://guide.michelin.com/se/en/stockholm-region/stockholm/restaurant/operakallaren
354,Mathias Dahlgren-Matbaren,Stockholm,,59.32935,18.07543,Modern cuisine,https://guide.michelin.com/se/en/stockholm-region/stockholm/restaurant/mathias-dahlgren-matbaren
355,Aloë,Stockholm,,59.2842,17.985748,Creative,https://guide.michelin.com/se/en/stockholm-region/stockholm/restaurant/aloe
356,PM & Vänner,Växjö,,56.87892,14.80387,Creative,https://guide.michelin.com/se/en/kronoberg/vaxjo/restaurant/pm-vanner
357,Bloom in the Park,Malmö,,55.59064,12.99794,Creative,https://guide.michelin.com/se/en/skane/malmo/restaurant/bloom-in-the-park
358,SAV,Malmö,,55.53376,13.00537,Creative,https://guide.michelin.com/se/en/skane/malmo/restaurant/sav
359,Golden Formosa,Taipei,,25.118216,121.53623,Taiwanese,https://guide.michelin.com/tw/en/taipei-region/taipei/restaurant/golden-formosa
360,Danny's Steakhouse,Taipei,,25.082657,121.552765,Steakhouse,https://guide.michelin.com/tw/en/taipei-region/taipei/restaurant/danny-s-steakhouse
361,L'Atelier de Joël Robuchon,Taipei,,25.039188,121.56771,French contemporary,https://guide.michelin.com/tw/en/taipei-region/taipei/restaurant/l-atelier-de-joel-robuchon550759
362,Kitcho,Taipei,,25.04429,121.55076,Sushi,https://guide.michelin.com/tw/en/taipei-region/taipei/restaurant/kitcho
363,Tien Hsiang Lo,Taipei,,25.062696,121.529976,Hang Zhou,https://guide.michelin.com/tw/en/taipei-region/taipei/restaurant/tien-hsiang-lo
364,Ya Ge,Taipei,,25.06625,121.52533,Cantonese,https://guide.michelin.com/tw/en/taipei-region/taipei/restaurant/ya-ge
365,Da-Wan,Taipei,,25.043018,121.55019,Barbecue,https://guide.michelin.com/tw/en/taipei-region/taipei/restaurant/da-wan
366,Sushi Nomura,Taipei,,25.03618,121.55465,Sushi,https://guide.michelin.com/tw/en/taipei-region/taipei/restaurant/sushi-nomura
367,logy,Taipei,,25.03561,121.55323,Asian contemporary,https://guide.michelin.com/tw/en/taipei-region/taipei/restaurant/logy
368,Ming Fu,Taipei,,25.06171,121.52399,Taiwanese,https://guide.michelin.com/tw/en/taipei-region/taipei/restaurant/ming-fu
369,Ken An Ho,Taipei,,25.034622,121.55281,Japanese,https://guide.michelin.com/tw/en/taipei-region/taipei/restaurant/ken-an-ho
370,Sushi Ryu,Taipei,,25.055832,121.52724,Sushi,https://guide.michelin.com/tw/en/taipei-region/taipei/restaurant/sushi-ryu
371,MUME,Taipei,,25.036266,121.54809,European contemporary,https://guide.michelin.com/tw/en/taipei-region/taipei/restaurant/mume
372,Impromptu by Paul Lee,Taipei,,25.05429,121.524254,Innovative,https://guide.michelin.com/tw/en/taipei-region/taipei/restaurant/impromptu-by-paul-lee
373,Longtail,Taipei,,25.023922,121.54841,Innovative,https://guide.michelin.com/tw/en/taipei-region/taipei/restaurant/longtail
374,Mountain and Sea House,Taipei,,25.038046,121.531395,Taiwanese,https://guide.michelin.com/tw/en/taipei-region/taipei/restaurant/mountain-and-sea-house
375,Da San Yuan,Taipei,,25.042248,121.512215,Cantonese,https://guide.michelin.com/tw/en/taipei-region/taipei/restaurant/da-san-yuan
376,Tainan Tan Tsu Mien Seafood,Taipei,,25.03799,121.4984,Seafood,https://guide.michelin.com/tw/en/taipei-region/taipei/restaurant/tainan-tan-tsu-mien-seafood
377,Suan Thip,Bangkok,,13.926962,100.502144,Thai,https://guide.michelin.com/th/en/bangkok-region/bangkok/restaurant/suan-thip
378,Upstairs at Mikkeller,Bangkok,,13.727946,100.58844,Innovative,https://guide.michelin.com/th/en/bangkok-region/bangkok/restaurant/upstairs-at-mikkeller
379,Chim by Siam Wisdom,Bangkok,,13.740706,100.56789,Thai,https://guide.michelin.com/th/en/bangkok-region/bangkok/restaurant/chim-by-siam-wisdom
380,R-Haan,Bangkok,,13.731805,100.57972,Thai,https://guide.michelin.com/th/en/bangkok-region/bangkok/restaurant/r-haan
381,Canvas,Bangkok,,13.728886,100.580826,Innovative,https://guide.michelin.com/th/en/bangkok-region/bangkok/restaurant/canvas566292
382,Bo.lan,Bangkok,,13.726389,100.57799,Thai,https://guide.michelin.com/th/en/bangkok-region/bangkok/restaurant/bo-lan
383,Sra Bua by Kiin Kiin,Bangkok,,13.754137,100.53451,Thai Contemporary,https://guide.michelin.com/th/en/bangkok-region/bangkok/restaurant/sra-bua-by-kiin-kiin
384,Elements,Bangkok,,13.742978,100.54798,French contemporary,https://guide.michelin.com/th/en/bangkok-region/bangkok/restaurant/elements
385,Paste,Bangkok,,13.744594,100.540565,Thai,https://guide.michelin.com/th/en/bangkok-region/bangkok/restaurant/paste
386,Ginza Sushi ichi,Bangkok,,13.744069,100.54092,Sushi,https://guide.michelin.com/th/en/bangkok-region/bangkok/restaurant/ginza-sushi-ichi
387,Sorn,Bangkok,,13.723242,100.56848,Southern Thai,https://guide.michelin.com/th/en/bangkok-region/bangkok/restaurant/sorn
388,Savelberg,Bangkok,,13.738216,100.54642,French contemporary,https://guide.michelin.com/th/en/bangkok-region/bangkok/restaurant/savelberg
389,Saneh Jaan,Bangkok,,13.735739,100.54605,Thai,https://guide.michelin.com/th/en/bangkok-region/bangkok/restaurant/saneh-jaan
390,Gaa,Bangkok,,13.737806,100.54275,Innovative,https://guide.michelin.com/th/en/bangkok-region/bangkok/restaurant/gaa
391,Methavalai Sorndaeng,Bangkok,,13.756321,100.502045,Thai,https://guide.michelin.com/th/en/bangkok-region/bangkok/restaurant/methavalai-sorndaeng
392,Jay Fai,Bangkok,,13.752614,100.50466,Street Food,https://guide.michelin.com/th/en/bangkok-region/bangkok/restaurant/jay-fai
393,Nahm,Bangkok,,13.724357,100.53926,Thai,https://guide.michelin.com/th/en/bangkok-region/bangkok/restaurant/nahm
394,J'AIME by Jean-Michel Lorain,Bangkok,,13.718885,100.546326,French contemporary,https://guide.michelin.com/th/en/bangkok-region/bangkok/restaurant/j-aime-by-jean-michel-lorain
395,Saawaan,Bangkok,,13.721809,100.53741,Thai Contemporary,https://guide.michelin.com/th/en/bangkok-region/bangkok/restaurant/saawaan
396,Le Du,Bangkok,,13.725005,100.52939,Thai,https://guide.michelin.com/th/en/bangkok-region/bangkok/restaurant/le-du
397,Ruean Panya,Bangkok,,13.558403,100.28264,Thai,https://guide.michelin.com/th/en/bangkok-region/bangkok/restaurant/ruean-panya
398,PRU,Phuket,,8.034298,98.2764,Innovative,https://guide.michelin.com/th/en/phuket-region/phuket/restaurant/pru
399,Blue Duck Tavern,"Washington, D.C.",,38.905373,-77.05128,American,https://guide.michelin.com/us/en/washington/washington-dc/restaurant/blue-duck-tavern
400,Tail Up Goat,"Washington, D.C.",,38.9235,-77.043274,Contemporary,https://guide.michelin.com/us/en/washington/washington-dc/restaurant/tail-up-goat
401,Komi,"Washington, D.C.",,38.910107,-77.03836,Mediterranean,https://guide.michelin.com/us/en/washington/washington-dc/restaurant/komi
402,Sushi Taro,"Washington, D.C.",,38.909992,-77.03834,Japanese,https://guide.michelin.com/us/en/washington/washington-dc/restaurant/sushi-taro
403,Plume,"Washington, D.C.",,38.906,-77.03671,European,https://guide.michelin.com/us/en/washington/washington-dc/restaurant/plume
404,Siren by RW,"Washington, D.C.",,38.907776,-77.035446,Seafood,https://guide.michelin.com/us/en/washington/washington-dc/restaurant/siren-by-rw
405,Bresca,"Washington, D.C.",,38.91584,-77.0321,Contemporary,https://guide.michelin.com/us/en/washington/washington-dc/restaurant/bresca
406,The Dabney,"Washington, D.C.",,38.906292,-77.024666,American,https://guide.michelin.com/us/en/washington/washington-dc/restaurant/the-dabney
407,Métier,"Washington, D.C.",,38.903503,-77.0218,Contemporary,https://guide.michelin.com/us/en/washington/washington-dc/restaurant/metier
408,Kinship,"Washington, D.C.",,38.903282,-77.0218,Contemporary,https://guide.michelin.com/us/en/washington/washington-dc/restaurant/kinship
409,Fiola,"Washington, D.C.",,38.89416,-77.02032,Italian,https://guide.michelin.com/us/en/washington/washington-dc/restaurant/fiola
410,Masseria,"Washington, D.C.",,38.909504,-76.99908,Italian,https://guide.michelin.com/us/en/washington/washington-dc/restaurant/masseria
411,Rose's Luxury,"Washington, D.C.",,38.88064,-76.99515,Contemporary,https://guide.michelin.com/us/en/washington/washington-dc/restaurant/rose-s-luxury
412,Loch Bay,Waternish,,57.51487,-6.57114,Modern cuisine,https://guide.michelin.com/gb/en/highland/waternish/restaurant/loch-bay
413,Braidwoods,Dalry,,55.69474,-4.7425,Classic cuisine,https://guide.michelin.com/gb/en/north-ayrshire/dalry/restaurant/braidwoods
414,Eipic,Belfast,,54.595898,-5.9322424,Modern cuisine,https://guide.michelin.com/gb/en/belfast/belfast/restaurant/eipic
415,OX,Belfast,,54.59891,-5.92198,Modern British,https://guide.michelin.com/gb/en/belfast/belfast/restaurant/ox399109
416,The Peat Inn,Peat Inn,,56.27861,-2.8845797,Classic cuisine,https://guide.michelin.com/gb/en/fife/peat-inn/restaurant/the-peat-inn
417,Kitchin,Leith,,55.976967,-3.172842,Modern cuisine,https://guide.michelin.com/gb/en/city-of-edinburgh/leith/restaurant/kitchin
418,Martin Wishart,Leith,,55.97552,-3.17019,Modern cuisine,https://guide.michelin.com/gb/en/city-of-edinburgh/leith/restaurant/martin-wishart
419,Number One,Edinburgh,,55.95298,-3.18966,Modern cuisine,https://guide.michelin.com/gb/en/city-of-edinburgh/edinburgh/restaurant/number-one
420,21212,Edinburgh,,55.95674,-3.18018,Creative,https://guide.michelin.com/gb/en/city-of-edinburgh/edinburgh/restaurant/21212
421,The Cellar,Anstruther,,56.222126,-2.696321,Modern cuisine,https://guide.michelin.com/gb/en/fife/anstruther/restaurant/the-cellar
422,Forest Side,Grasmere,,54.46396,-3.0157998,Modern British,https://guide.michelin.com/gb/en/cumbria/grasmere/restaurant/forest-side
423,HRiSHi,Bowness-on-Windermere,,54.35013,-2.91172,Modern cuisine,https://guide.michelin.com/gb/en/cumbria/bowness-on-windermere/restaurant/hrishi
424,Rogan & Co,Cartmel,,54.20074,-2.95464,Creative British,https://guide.michelin.com/gb/en/cumbria/cartmel/restaurant/rogan-co
425,House of Tides,Newcastle upon Tyne,,54.96758,-1.61127,Modern cuisine,https://guide.michelin.com/gb/en/tyne-and-wear/newcastle-upon-tyne/restaurant/house-of-tides
426,Sosban & The Old Butchers,Menai Bridge/Porthaethwy,,53.225925,-4.163006,Modern cuisine,https://guide.michelin.com/gb/en/isle-of-anglesey/menai-bridge-porthaethwy/restaurant/sosban-the-old-butchers
427,Northcote,Langho,,53.80933,-2.4476,Modern British,https://guide.michelin.com/gb/en/lancashire/langho/restaurant/northcote
428,Yorke Arms,Pateley Bridge,,54.13435,-1.8183095,Modern cuisine,https://guide.michelin.com/gb/en/north-yorkshire/pateley-bridge/restaurant/yorke-arms
429,Fraiche,Birkenhead,,53.38183,-3.04307,Creative,https://guide.michelin.com/gb/en/merseyside/birkenhead/restaurant/fraiche
430,White Swan,Fence,,53.83916,-2.25097,Modern British,https://guide.michelin.com/gb/en/lancashire/fence/restaurant/white-swan
431,Tyddyn Llan,Llandrillo,,52.92405,-3.44329,Classic cuisine,https://guide.michelin.com/gb/en/denbighshire/llandrillo/restaurant/tyddyn-llan
432,Ynyshir,Machynlleth,,52.54476,-3.94491,Creative,https://guide.michelin.com/gb/en/ceredigion/machynlleth/restaurant/ynyshir
433,Black Swan,Oldstead,,54.21205,-1.1879199,Modern British,https://guide.michelin.com/gb/en/north-yorkshire/oldstead/restaurant/black-swan
434,Simon Radley at Chester Grosvenor,Chester,,53.19064,-2.88913,Modern cuisine,https://guide.michelin.com/gb/en/cheshire-west-and-chester/chester/restaurant/simon-radley-at-chester-grosvenor
435,Star Inn at Harome,Harome,,54.23101,-1.01023,Modern British,https://guide.michelin.com/gb/en/north-yorkshire/harome/restaurant/star-inn-at-harome
436,The Man Behind The Curtain,Leeds,,53.798286,-1.539937,Creative,https://guide.michelin.com/gb/en/kent/leeds/restaurant/the-man-behind-the-curtain
437,The Checkers,Montgomery/Trefaldwyn,,52.55568,-3.13769,French,https://guide.michelin.com/gb/en/powys/montgomery-trefaldwyn/restaurant/the-checkers
438,Pipe and Glass,South Dalton,,53.8955,-0.53301,Modern British,https://guide.michelin.com/gb/en/east-riding-of-yorkshire/south-dalton/restaurant/pipe-and-glass
439,Fischer's at Baslow Hall,Baslow,,53.25055,-1.6269798,Modern cuisine,https://guide.michelin.com/gb/en/derbyshire/baslow/restaurant/fischer-s-at-baslow-hall
440,Winteringham Fields,Winteringham,,53.68778,-0.59013,Modern cuisine,https://guide.michelin.com/gb/en/north-lincolnshire/winteringham/restaurant/winteringham-fields
441,Thomas Carr @ The Olive Room,Ilfracombe,,51.209476,-4.118807,Seafood,https://guide.michelin.com/gb/en/devon/ilfracombe/restaurant/thomas-carr-the-olive-room
442,Walnut Tree,Llanddewi Skirrid,,51.84534,-2.95438,Modern British,https://guide.michelin.com/gb/en/monmouthshire/llanddewi-skirrid/restaurant/walnut-tree
443,Paul Ainsworth at No.6,Padstow,,50.541534,-4.9398518,Modern cuisine,https://guide.michelin.com/gb/en/cornwall/padstow/restaurant/paul-ainsworth-at-no-6
444,Simpsons,Birmingham,,52.46925,-1.9238801,Modern cuisine,https://guide.michelin.com/gb/en/west-midlands/birmingham/restaurant/simpsons
445,Purnell's,Birmingham,,52.48268,-1.9018,Modern cuisine,https://guide.michelin.com/gb/en/west-midlands/birmingham/restaurant/purnell-s
446,Adam's,Birmingham,,52.47964,-1.900286,Modern cuisine,https://guide.michelin.com/gb/en/west-midlands/birmingham/restaurant/adam-s
447,Outlaw's Fish Kitchen,Port Isaac,,50.59206,-4.832,Seafood,https://guide.michelin.com/gb/en/cornwall/port-isaac/restaurant/outlaw-s-fish-kitchen
448,Carters of Moseley,Birmingham,,52.44588,-1.88384,Modern British,https://guide.michelin.com/gb/en/west-midlands/birmingham/restaurant/carters-of-moseley
449,Peel's,Hampton in Arden,,52.4259,-1.70536,Creative British,https://guide.michelin.com/gb/en/west-midlands/hampton-in-arden/restaurant/peel-s
450,John's House,Mountsorrel,,52.73295,-1.145851,Modern cuisine,https://guide.michelin.com/gb/en/leicestershire/mountsorrel/restaurant/john-s-house
451,The Whitebrook,Whitebrook,,51.759697,-2.686909,Modern British,https://guide.michelin.com/gb/en/monmouthshire/whitebrook/restaurant/the-whitebrook
452,James Sommerin,Penarth,,51.434387,-3.167951,Modern cuisine,https://guide.michelin.com/gb/en/the-vale-of-glamorgan/penarth/restaurant/james-sommerin
453,Driftwood,Portscatho,,50.1889,-4.97088,Modern cuisine,https://guide.michelin.com/gb/en/cornwall/portscatho/restaurant/driftwood
454,The Cross at Kenilworth,Kenilworth,,52.350315,-1.5801147,Classic cuisine,https://guide.michelin.com/gb/en/warwickshire/kenilworth/restaurant/the-cross-at-kenilworth
455,Masons Arms,Knowstone,,50.99547,-3.67163,Classic French,https://guide.michelin.com/gb/en/devon/knowstone/restaurant/masons-arms
456,Salt,Stratford-upon-Avon,,52.18963,-1.7092043,Modern British,https://guide.michelin.com/gb/en/warwickshire/stratford-upon-avon/restaurant/salt522869
457,Le Champignon Sauvage,Cheltenham,,51.89146,-2.07912,Modern cuisine,https://guide.michelin.com/gb/en/gloucestershire/cheltenham/restaurant/le-champignon-sauvage
458,Gidleigh Park,Chagford,,50.67658,-3.87354,Modern cuisine,https://guide.michelin.com/gb/en/devon/chagford/restaurant/gidleigh-park
459,Hambleton Hall,Upper Hambleton,,52.65737,-0.66812,Classic cuisine,https://guide.michelin.com/gb/en/rutland/upper-hambleton/restaurant/hambleton-hall
460,wilks,Bristol,,51.46737,-2.6069899,Modern British,https://guide.michelin.com/gb/en/south-gloucestershire/bristol/restaurant/wilks
461,Bulrush,Bristol,,51.46278,-2.597758,Modern British,https://guide.michelin.com/gb/en/south-gloucestershire/bristol/restaurant/bulrush
462,Casamia,Bristol,,51.447254,-2.5940728,Creative,https://guide.michelin.com/gb/en/south-gloucestershire/bristol/restaurant/casamia
463,Paco Tapas,Bristol,,51.44647,-2.59358,Spanish,https://guide.michelin.com/gb/en/south-gloucestershire/bristol/restaurant/paco-tapas
464,Pony & Trap,Chew Magna,,51.34938,-2.5925994,Modern British,https://guide.michelin.com/gb/en/bath-and-north-east-somerset/chew-magna/restaurant/pony-trap
465,The Dining Room,Malmesbury,,51.58376,-2.14954,Asian influences,https://guide.michelin.com/gb/en/wiltshire/malmesbury/restaurant/the-dining-room193454
466,Bybrook,Castle Combe,,51.49382,-2.23212,Modern British,https://guide.michelin.com/gb/en/wiltshire/castle-combe/restaurant/bybrook
467,Restaurant Hywel Jones by Lucknam Park,Colerne,,51.45502,-2.25941,Modern British,https://guide.michelin.com/gb/en/wiltshire/colerne/restaurant/restaurant-hywel-jones-by-lucknam-park
468,Olive Tree,Bath,,51.38707,-2.3627,Modern cuisine,https://guide.michelin.com/gb/en/bath-and-north-east-somerset/bath/restaurant/olive-tree
469,Lympstone Manor,Lympstone,,50.64069,-3.4186063,Modern cuisine,https://guide.michelin.com/gb/en/devon/lympstone/restaurant/lympstone-manor
470,The Neptune,Hunstanton,,52.9511,0.50927,Modern cuisine,https://guide.michelin.com/gb/en/norfolk/hunstanton/restaurant/the-neptune
471,Elephant,Torquay,,50.45853,-3.52438,Modern British,https://guide.michelin.com/gb/en/torbay/torquay/restaurant/elephant
472,Oxford Kitchen,Oxford,,51.776733,-1.264794,Modern British,https://guide.michelin.com/gb/en/oxfordshire/oxford/restaurant/oxford-kitchen
473,Nut Tree,Murcott,,51.83618,-1.1499,Traditional British,https://guide.michelin.com/gb/en/oxfordshire/murcott/restaurant/nut-tree
474,Morston Hall,Morston,,52.95473,0.98729,Modern British,https://guide.michelin.com/gb/en/norfolk/morston/restaurant/morston-hall
475,Red Lion Freehouse,East Chisenbury,,51.2736,-1.8007996,Classic cuisine,https://guide.michelin.com/gb/en/wiltshire/east-chisenbury/restaurant/red-lion-freehouse
476,Blackbird,Newbury,,51.420887,-1.3493549,Classic cuisine,https://guide.michelin.com/gb/en/west-berkshire/newbury/restaurant/blackbird552018
477,Woodspeen,Newbury,,51.415802,-1.353532,Modern cuisine,https://guide.michelin.com/gb/en/west-berkshire/newbury/restaurant/woodspeen
478,The Coach,Marlow,,51.571712,-0.7772678,Modern British,https://guide.michelin.com/gb/en/buckinghamshire/marlow/restaurant/the-coach
479,Crown,Burchett's Green,,51.524807,-0.7915291,Regional cuisine,https://guide.michelin.com/gb/en/windsor-and-maidenhead/burchett-s-green/restaurant/crown442549
480,L'Ortolan,Shinfield,,51.40833,-0.9542898,French,https://guide.michelin.com/gb/en/wokingham/shinfield/restaurant/l-ortolan
481,Hinds Head,Bray,,51.51265,-0.69641,Traditional British,https://guide.michelin.com/gb/en/buckinghamshire/bray/restaurant/hinds-head
482,Black Rat,Winchester,,51.05796,-1.3069497,Modern cuisine,https://guide.michelin.com/gb/en/hampshire/winchester/restaurant/black-rat
483,Matt Worswick at The Latymer,Bagshot,,51.35764,-0.7086128,Modern cuisine,https://guide.michelin.com/gb/en/surrey/bagshot/restaurant/matt-worswick-at-the-latymer
484,Coworth Park,Ascot,,51.40463,-0.616715,Modern cuisine,https://guide.michelin.com/gb/en/windsor-and-maidenhead/ascot/restaurant/coworth-park
485,Tudor Room,Egham,,51.41759,-0.545847,Modern cuisine,https://guide.michelin.com/gb/en/surrey/egham/restaurant/tudor-room
486,The Glasshouse,Kew,,51.4771,-0.28574,Modern cuisine,https://guide.michelin.com/gb/en/greater-london/kew/restaurant/the-glasshouse
487,La Trompette,Chiswick,,51.49222,-0.25619,Modern British,https://guide.michelin.com/gb/en/greater-london/chiswick/restaurant/la-trompette
488,Tim Allen's Flitch of Bacon,Little Dunmow,,51.86747,0.404134,Modern British,https://guide.michelin.com/gb/en/essex/little-dunmow/restaurant/tim-allen-s-flitch-of-bacon
489,River Café,Hammersmith,,51.48395,-0.22423,Italian,https://guide.michelin.com/gb/en/greater-london/hammersmith/restaurant/river-cafe
490,Kitchen W8,Kensington,,51.49918,-0.19692,Modern cuisine,https://guide.michelin.com/gb/en/greater-london/kensington/restaurant/kitchen-w8
491,Trishna,Marylebone,,51.51834,-0.153031,Indian,https://guide.michelin.com/gb/en/greater-london/marylebone/restaurant/trishna
492,Roganic,Marylebone,,51.518314,-0.1520875,Creative British,https://guide.michelin.com/gb/en/greater-london/marylebone/restaurant/roganic
493,Locanda Locatelli,Marylebone,,51.51514,-0.15675,Italian,https://guide.michelin.com/gb/en/greater-london/marylebone/restaurant/locanda-locatelli
494,Texture,Marylebone,,51.51488,-0.15664,Creative,https://guide.michelin.com/gb/en/greater-london/marylebone/restaurant/texture
495,Portland,Regent's Park,,51.519726,-0.142555,Modern cuisine,https://guide.michelin.com/gb/en/greater-london/regent-s-park/restaurant/portland
496,Harwood Arms,Fulham,,51.48291,-0.19651,Modern British,https://guide.michelin.com/gb/en/greater-london/fulham/restaurant/harwood-arms
497,Pied à Terre,Bloomsbury,,51.519,-0.13511,Creative,https://guide.michelin.com/gb/en/greater-london/bloomsbury/restaurant/pied-a-terre
498,The Ninth,Bloomsbury,,51.51875,-0.1350068,Mediterranean cuisine,https://guide.michelin.com/gb/en/greater-london/bloomsbury/restaurant/the-ninth
499,Kai,Mayfair,,51.50871,-0.15162,Chinese,https://guide.michelin.com/gb/en/greater-london/mayfair/restaurant/kai123638
500,Pollen Street Social,Mayfair,,51.5133,-0.14234,Creative,https://guide.michelin.com/gb/en/greater-london/mayfair/restaurant/pollen-street-social
501,Hakkasan Mayfair,Mayfair,,51.51037,-0.14475,Chinese,https://guide.michelin.com/gb/en/greater-london/mayfair/restaurant/hakkasan-mayfair
502,The Square,Mayfair,,51.51069,-0.14401,Creative French,https://guide.michelin.com/gb/en/greater-london/mayfair/restaurant/the-square69391
503,Alyn Williams at The Westbury,Mayfair,,51.51118,-0.14303,Modern cuisine,https://guide.michelin.com/gb/en/greater-london/mayfair/restaurant/alyn-williams-at-the-westbury
504,Benares,Mayfair,,51.50973,-0.14494,Indian,https://guide.michelin.com/gb/en/greater-london/mayfair/restaurant/benares
505,Hakkasan Hanway Place,Bloomsbury,,51.5171,-0.13144,Chinese,https://guide.michelin.com/gb/en/greater-london/bloomsbury/restaurant/hakkasan-hanway-place
506,Social Eating House,Soho,,51.51383,-0.13673,Modern cuisine,https://guide.michelin.com/gb/en/greater-london/soho/restaurant/social-eating-house
507,Galvin at Windows,Mayfair,,51.50539,-0.15039,Modern cuisine,https://guide.michelin.com/gb/en/greater-london/mayfair/restaurant/galvin-at-windows
508,Murano,Mayfair,,51.50707,-0.14722,Italian,https://guide.michelin.com/gb/en/greater-london/mayfair/restaurant/murano
509,Marcus,Belgravia,,51.50171,-0.15614,Modern cuisine,https://guide.michelin.com/gb/en/greater-london/belgravia/restaurant/marcus
510,Sabor,Mayfair,,51.511368,-0.1396773,Spanish,https://guide.michelin.com/gb/en/greater-london/mayfair/restaurant/sabor
511,Clock House,Ripley,,51.30044,-0.49287,Modern cuisine,https://guide.michelin.com/gb/en/surrey/ripley/restaurant/clock-house
512,Yauatcha Soho,Soho,,51.51367,-0.1352,Chinese,https://guide.michelin.com/gb/en/greater-london/soho/restaurant/yauatcha-soho
513,Céleste,Belgravia,,51.502422,-0.1522617,Creative French,https://guide.michelin.com/gb/en/greater-london/belgravia/restaurant/celeste
514,Gymkhana,Mayfair,,51.50854,-0.14154,Indian,https://guide.michelin.com/gb/en/greater-london/mayfair/restaurant/gymkhana
515,Amaya,Belgravia,,51.49912,-0.15731,Indian,https://guide.michelin.com/gb/en/greater-london/belgravia/restaurant/amaya
516,Pétrus,Belgravia,,51.49951,-0.15662,French,https://guide.michelin.com/gb/en/greater-london/belgravia/restaurant/petrus284688
517,Veeraswamy,Mayfair,,51.51008,-0.13809,Indian,https://guide.michelin.com/gb/en/greater-london/mayfair/restaurant/veeraswamy
518,Barrafina,Soho,,51.51375,-0.1318,Spanish,https://guide.michelin.com/gb/en/greater-london/soho/restaurant/barrafina
519,Hide,Mayfair,,51.506077,-0.144289,Modern British,https://guide.michelin.com/gb/en/greater-london/mayfair/restaurant/hide
520,Ritz Restaurant,Westminster,,51.50728,-0.14141,Modern British,https://guide.michelin.com/gb/en/greater-london/westminster/restaurant/ritz-restaurant
521,Elystan Street,Chelsea,,51.49124,-0.16724,Modern British,https://guide.michelin.com/gb/en/greater-london/chelsea/restaurant/elystan-street
522,Seven Park Place,Saint James's,,51.50623,-0.13998,Modern cuisine,https://guide.michelin.com/gb/en/greater-london/saint-james-s/restaurant/seven-park-place
523,Ikoyi,Saint James's,,51.509212,-0.1334389,Creative,https://guide.michelin.com/gb/en/greater-london/saint-james-s/restaurant/ikoyi
524,Aquavit,Saint James's,,51.508713,-0.1334072,Scandinavian,https://guide.michelin.com/gb/en/greater-london/saint-james-s/restaurant/aquavit501082
525,Five Fields,Chelsea,,51.49168,-0.16124,Modern cuisine,https://guide.michelin.com/gb/en/greater-london/chelsea/restaurant/five-fields
526,Dining Room at The Goring,Victoria,,51.49763,-0.14556,Traditional British,https://guide.michelin.com/gb/en/greater-london/victoria/restaurant/dining-room-at-the-goring
527,St John,Clerkenwell,,51.52064,-0.10133,Traditional British,https://guide.michelin.com/gb/en/greater-london/clerkenwell/restaurant/st-john
528,Quilon,Victoria,,51.49863,-0.13726,Indian,https://guide.michelin.com/gb/en/greater-london/victoria/restaurant/quilon
529,Club Gascon,London,,51.51857,-0.10031,French,https://guide.michelin.com/gb/en/greater-london/london/restaurant/club-gascon
530,A. Wong,Victoria,,51.49318,-0.14128,Chinese,https://guide.michelin.com/gb/en/greater-london/victoria/restaurant/a-wong
531,The Clove Club,Shoreditch,,51.52711,-0.07927,Modern cuisine,https://guide.michelin.com/gb/en/greater-london/shoreditch/restaurant/the-clove-club
532,Leroy,Shoreditch,,51.524086,-0.0815337,Modern British,https://guide.michelin.com/gb/en/greater-london/shoreditch/restaurant/leroy
533,Angler,Finsbury,,51.51894,-0.08625,Seafood,https://guide.michelin.com/gb/en/greater-london/finsbury/restaurant/angler392235
534,Brat,Shoreditch,,51.52427,-0.0767681,Traditional British,https://guide.michelin.com/gb/en/greater-london/shoreditch/restaurant/brat
535,Lyle's,Shoreditch,,51.52378,-0.07704,Modern British,https://guide.michelin.com/gb/en/greater-london/shoreditch/restaurant/lyle-s
536,Galvin La Chapelle,Spitalfields,,51.52032,-0.0781,French,https://guide.michelin.com/gb/en/greater-london/spitalfields/restaurant/galvin-la-chapelle
537,City Social,City of London,,51.51521,-0.08431,Modern cuisine,https://guide.michelin.com/gb/en/greater-london/city-of-london/restaurant/city-social
538,La Dame de Pic,City of London,,51.510372,-0.0788981,Modern French,https://guide.michelin.com/gb/en/greater-london/city-of-london/restaurant/la-dame-de-pic
539,Story,Bermondsey,,51.50268,-0.07774,Modern cuisine,https://guide.michelin.com/gb/en/greater-london/bermondsey/restaurant/story
540,Trinity,Clapham Common,,51.46336,-0.14148,Modern cuisine,https://guide.michelin.com/gb/en/greater-london/clapham-common/restaurant/trinity
541,Chez Bruce,Wandsworth,,51.44607,-0.16553,French,https://guide.michelin.com/gb/en/greater-london/wandsworth/restaurant/chez-bruce
542,Sorrel,Dorking,,51.228825,-0.3346741,Modern British,https://guide.michelin.com/gb/en/surrey/dorking/restaurant/sorrel545459
543,Restaurant Tristan,Horsham,,51.062347,-0.326034,Modern British,https://guide.michelin.com/gb/en/west-sussex/horsham/restaurant/restaurant-tristan
544,Gravetye Manor,Gravetye,,51.08932,-0.05691,Modern British,https://guide.michelin.com/gb/en/west-sussex/gravetye/restaurant/gravetye-manor
545,The Sportsman,Seasalter,,51.34392,0.95885,Modern British,https://guide.michelin.com/gb/en/kent/seasalter/restaurant/the-sportsman
546,West House,Biddenden,,51.11521,0.64215,Modern British,https://guide.michelin.com/gb/en/kent/biddenden/restaurant/west-house
547,Fordwich Arms,Fordwich,,51.295284,1.1261871,Modern cuisine,https://guide.michelin.com/gb/en/kent/fordwich/restaurant/fordwich-arms
548,Samphire,Saint Helier/Saint-Hélier,,49.18488,-2.1057,Modern cuisine,https://guide.michelin.com/gb/en/saint-helier/saint-helier-saint-helier/restaurant/samphire392987
549,Bohemia,Saint Helier/Saint-Hélier,,49.181225,-2.102417,Modern cuisine,https://guide.michelin.com/gb/en/saint-helier/saint-helier-saint-helier/restaurant/bohemia
